SL-16 R/B               
1 24298U 96051B   26162.86152483  .00000118  00000+0  90634-4 0  9995
2 24298  70.7638 335.9202 0015016 344.9513  15.1157 14.12444119534940
ORBVIEW 2 (SEASTAR)     
1 24883U 97037A   26162.44403201  .00000190  00000+0  82157-4 0  9992
2 24883  98.8682 329.3041 0003038 127.6428 232.5032 14.35550492521928
SL-16 R/B               
1 25400U 98043G   26162.60960356  .00000026  00000+0  29848-4 0  9999
2 25400  98.8362 116.7209 0010922 100.8866 259.3542 14.26067680452379
SL-16 R/B               
1 25407U 98045B   26162.79720726 -.00000134  00000+0 -43355-4 0  9994
2 25407  71.0121 343.6653 0009501 248.5088 111.5022 14.16204827440423
ISS (ZARYA)             
1 25544U 98067A   26162.83551936  .00007284  00000+0  13937-3 0  9993
2 25544  51.6334 326.5798 0004934 175.2433 184.8603 15.49179015570924
CZ-4B R/B               
1 25732U 99025C   26162.71558372  .00000033  00000+0  36596-4 0  9997
2 25732  98.6485 204.6916 0038210  74.9533  35.5452 14.18282562401495
OKEAN-O                 
1 25860U 99039A   26162.73778473  .00000481  00000+0  69705-4 0  9997
2 25860  97.9317 221.5980 0001734  75.5952 284.5453 14.80460666448305
SL-16 R/B               
1 25861U 99039B   26162.69710904  .00000404  00000+0  57946-4 0  9997
2 25861  97.9838 221.5756 0013770 316.3327  43.6796 14.81839823450785
DELTA 2 R/B             
1 25876U 99041E   26162.65456808  .00000741  00000+0  15698-3 0  9993
2 25876  51.7663 285.8973 0500872 265.6608  88.6960 14.12006108376304
HELIOS 1B               
1 25977U 99064A   26162.73176855  .00001172  00000+0  13417-3 0  9996
2 25977  98.1620  67.7135 0002470  98.4274 261.7222 14.87992386699243
TERRA                   
1 25994U 99068A   26162.82440921  .00000323  00000+0  74687-4 0  9991
2 25994  97.9458 212.5831 0001177 211.7689 270.0977 14.61098812408829
SL-16 R/B               
1 26070U 00006B   26162.69573177 -.00000274  00000+0 -11472-3 0  9995
2 26070  71.0027 260.1719 0015235  31.5761 328.6273 14.15835303361867
TITAN 4B R/B            
1 26474U 00047B   26162.69556860  .00002843  00000+0  17795-3 0  9994
2 26474  67.9872 136.0303 0045613 292.7819  66.8515 15.10165325407109
ENVISAT                 
1 27386U 02009A   26162.89634601  .00000055  00000+0  31557-4 0  9995
2 27386  98.3833 114.3328 0001339  89.8532 336.4099 14.39063569272725
IDEFIX & ARIANE 42P R/B 
1 27422U 02021B   26162.74594527  .00000165  00000+0  79148-4 0  9996
2 27422  98.5943 100.2880 0010585 271.8145  88.1826 14.31079601257473
AQUA                    
1 27424U 02022A   26162.85780927  .00000644  00000+0  13781-3 0  9994
2 27424  98.4275 132.0342 0001316  53.1833  31.7763 14.62149994282496
CZ-4B R/B               
1 27432U 02024C   26162.80451420  .00000021  00000+0  33482-4 0  9993
2 27432  98.8700 215.6594 0051143 115.2012 359.8350 14.14563447242549
MIDORI II (ADEOS-II)    
1 27597U 02056A   26162.74793811  .00000209  00000+0  10001-3 0  9995
2 27597  98.7876 121.9616 0002222  84.2526 275.8909 14.29346693223732
H-2A R/B                
1 27601U 02056E   26162.50830605  .00000157  00000+0  69715-4 0  9997
2 27601  98.3310 119.3899 0068976 241.7283 227.9874 14.33819676227553
CZ-4B R/B               
1 28059U 03049C   26162.59260823  .00000272  00000+0  74013-4 0  9991
2 28059  98.6895 161.2164 0047136 306.0717  53.6118 14.55096543200252
CZ-2C R/B               
1 28222U 04012C   26162.70825785  .00091630  00000+0  53842-3 0  9995
2 28222  97.7095 237.7383 0008953 307.3545  52.6905 15.77933342219036
SL-16 R/B               
1 28353U 04021B   26162.85788441 -.00000278  00000+0 -11973-3 0  9992
2 28353  71.0016  34.8746 0007446 260.8656  99.1624 14.14610751136151
CZ-4B R/B               
1 28415U 04035C   26162.64100424  .00007555  00000+0  25480-3 0  9993
2 28415  97.3373 195.7768 0030571 358.1891   1.9235 15.30545786194275
CZ-2C R/B               
1 28480U 04046B   26162.72238891  .00000040  00000+0  30355-4 0  9996
2 28480  98.1949  71.8445 0138256 236.5373 122.2530 14.27025326121918
ARIANE 5 R/B            
1 28499U 04049H   26162.47199212  .00000601  00000+0  72443-4 0  9991
2 28499  98.2716 334.5044 0084848  47.7848 313.0527 14.85441248159715
CZ-2D R/B               
1 28738U 05024B   26162.67163557  .00052370  00000+0  45434-3 0  9995
2 28738  97.3492 181.8269 0004263  64.7947 295.3756 15.68959215154470
ALOS (DAICHI)           
1 28931U 06002A   26162.84944465  .00000879  00000+0  15478-3 0  9993
2 28931  98.1322 118.4335 0001646  58.1351 302.0014 14.70039419 87312
H-2A R/B                
1 28932U 06002B   26162.38575122  .00005627  00000+0  27216-3 0  9992
2 28932  98.2553 317.6909 0049634 282.5768  76.9915 15.17987423108640
RESURS-DK 1             
1 29228U 06021A   26162.68096205  .00002244  00000+0  13218-3 0  9994
2 29228  69.9338 353.8061 0006682 296.0141  64.0336 15.13193083101743
CZ-4B R/B               
1 29507U 06046C   26162.71489207  .00003414  00000+0  17059-3 0  9990
2 29507  97.5459 207.3388 0031176 302.7726  57.0505 15.17744091 74305
CZ-2C R/B               
1 31114U 07010B   26162.28315156  .00000056  00000+0  44432-4 0  9997
2 31114  98.4093 270.9230 0059373  23.2361 337.1481 14.20274873993008
